ONEWEB-0474             
1 51654U 22012AJ  24020.59976820  .00000272  00000+0  74379-3 0  9995
2 51654  87.8888 210.7875 0001679  97.6113 262.5205 13.10370464 94239
ONEWEB-0475             
1 51655U 22012AK  24020.48919915 -.00000214  00000+0 -58412-3 0  9994
2 51655  87.9217 180.6117 0001882 109.9854 250.1480 13.17650138 97974
ONEWEB-0490             
1 54113U 22138A   24020.34212612  .00000016  00000+0  70859-5 0  9999
2 54113  87.9201 119.9190 0001894 104.5655 255.5688 13.19725582 60919
ONEWEB-0495             
1 54115U 22138C   24020.34527994 -.00000117  00000+0 -32484-3 0  9997
2 54115  87.9207 119.9248 0002155 112.0377 248.0984 13.19726415 60908
ONEWEB-0497             
1 54116U 22138D   24020.28210329  .00000053  00000+0  99918-4 0  9995
2 54116  87.9203 119.9320 0001927 106.8825 253.2519 13.19726430 60887
ONEWEB-0499             
1 54117U 22138E   24020.34054136  .00000025  00000+0  29492-4 0  9994
2 54117  87.9207 119.9151 0001702 125.2014 234.9278 13.19725060 60909
ONEWEB-0500             
1 54118U 22138F   24020.34371314 -.00000166  00000+0 -44796-3 0  9996
2 54118  87.9204 119.9154 0001875 104.7349 255.3992 13.19726724 60913
ONEWEB-0501             
1 54119U 22138G   24020.29790716  .00000007  00000+0 -13934-4 0  9996
2 54119  87.9201 119.9248 0002336 114.3089 245.8288 13.19727012 60885
ONEWEB-0502             
1 54120U 22138H   24020.28368360  .00000066  00000+0  13356-3 0  9994
2 54120  87.9202 119.9186 0002005 112.7053 247.4292 13.19726269 60904
ONEWEB-0505             
1 54123U 22138L   24020.33264813 -.00000045  00000+0 -14375-3 0  9992
2 54123  87.9202 119.9159 0002412 119.2452 240.8922 13.19725477 60899
ONEWEB-0506             
1 54124U 22138M   24020.30737444  .00000081  00000+0  16893-3 0  9990
2 54124  87.9203 119.9179 0002033 110.7725 249.3625 13.19725227 60887
ONEWEB-0509             
1 54127U 22138Q   24020.29947793  .00000112  00000+0  24627-3 0  9990
2 54127  87.9201 119.9224 0001908 111.2630 248.8707 13.19725365 60888
ONEWEB-0510             
1 54128U 22138R   24020.57998759 -.00000005  00000+0 -43178-4 0  9996
2 54128  87.9181  89.3202 0002201  94.1377 266.0008 13.20771814 63304
ONEWEB-0511             
1 54129U 22138S   24020.29631646  .00000131  00000+0  29507-3 0  9992
2 54129  87.9200 119.9249 0001611 122.4591 237.6698 13.19725750 60914
ONEWEB-0512             
1 54130U 22138T   24020.28842012  .00000126  00000+0  28290-3 0  9996
2 54130  87.9209 119.9306 0002188 116.9939 243.1418 13.19725887 60882
ONEWEB-0513             
1 54131U 22138U   24020.33502829  .00000125  00000+0  27938-3 0  9999
2 54131  87.9213 119.9196 0002019 123.6379 236.4947 13.19725246 60770
ONEWEB-0515             
1 54133U 22138W   24020.18858195  .00000078  00000+0  16097-3 0  9995
2 54133  87.9180  89.3793 0002079  66.1836 293.9515 13.20771729 63279
ONEWEB-0516             
1 54134U 22138X   24020.27894053  .00000162  00000+0  37220-3 0  9994
2 54134  87.9209 119.9327 0001919 106.6813 253.4531 13.19725389 60907
ONEWEB-0518             
1 54136U 22138Z   24020.27736362  .00000094  00000+0  20363-3 0  9998
2 54136  87.9208 119.9328 0001588 108.6050 251.5255 13.19725828 60906
ONEWEB-0520             
1 54138U 22138AB  24020.33738564 -.00000006  00000+0 -47951-4 0  9991
2 54138  87.9201 119.9160 0002258 112.6988 247.4383 13.19725350 60901
ONEWEB-0522             
1 54140U 22138AD  24020.35002230 -.00000085  00000+0 -24348-3 0  9991
2 54140  87.9200 119.9111 0001867 104.3849 255.7491 13.19725871 60896
