OBJECT_NAME,OBJECT_ID,EPOCH,MEAN_MOTION,ECCENTRICITY,INCLINATION,RA_OF_ASC_NODE,ARG_OF_PERICENTER,MEAN_ANOMALY,EPHEMERIS_TYPE,CLASSIFICATION_TYPE,NORAD_CAT_ID,ELEMENT_SET_NO,REV_AT_EPOCH,BSTAR,MEAN_MOTION_DOT,MEAN_MOTION_DDOT
ONEWEB-0474,2022-012AJ,2024-01-20T14:23:39.972480,13.10370464,.0001679,87.8888,210.7875,97.6113,262.5205,0,U,51654,999,9552,.74379E-3,.272E-5,0
ONEWEB-0475,2022-012AK,2024-01-20T11:44:26.806560,13.17650138,.0001882,87.9217,180.6117,109.9854,250.1480,0,U,51655,999,9797,-.58412E-3,-.214E-5,0
ONEWEB-0490,2022-138A,2024-01-20T08:12:39.696768,13.19725582,.0001894,87.9201,119.9190,104.5655,255.5688,0,U,54113,999,6091,.70859E-5,.16E-6,0
ONEWEB-0495,2022-138C,2024-01-20T08:17:12.186816,13.19726415,.0002155,87.9207,119.9248,112.0377,248.0984,0,U,54115,999,6090,-.32484E-3,-.117E-5,0
ONEWEB-0497,2022-138D,2024-01-20T06:46:13.724256,13.19726430,.0001927,87.9203,119.9320,106.8825,253.2519,0,U,54116,999,6088,.99918E-4,.53E-6,0
ONEWEB-0499,2022-138E,2024-01-20T08:10:22.773504,13.19725060,.0001702,87.9207,119.9151,125.2014,234.9278,0,U,54117,999,6090,.29492E-4,.25E-6,0
ONEWEB-0500,2022-138F,2024-01-20T08:14:56.815296,13.19726724,.0001875,87.9204,119.9154,104.7349,255.3992,0,U,54118,999,6091,-.44796E-3,-.166E-5,0
ONEWEB-0501,2022-138G,2024-01-20T07:08:59.178624,13.19727012,.0002336,87.9201,119.9248,114.3089,245.8288,0,U,54119,999,6088,-.13934E-4,.7E-7,0
ONEWEB-0502,2022-138H,2024-01-20T06:48:30.263040,13.19726269,.0002005,87.9202,119.9186,112.7053,247.4292,0,U,54120,999,6090,.13356E-3,.66E-6,0
ONEWEB-0505,2022-138L,2024-01-20T07:59:00.798432,13.19725477,.0002412,87.9202,119.9159,119.2452,240.8922,0,U,54123,999,6089,-.14375E-3,-.45E-6,0
ONEWEB-0506,2022-138M,2024-01-20T07:22:37.151616,13.19725227,.0002033,87.9203,119.9179,110.7725,249.3625,0,U,54124,999,6088,.16893E-3,.81E-6,0
ONEWEB-0509,2022-138Q,2024-01-20T07:11:14.893152,13.19725365,.0001908,87.9201,119.9224,111.2630,248.8707,0,U,54127,999,6088,.24627E-3,.112E-5,0
ONEWEB-0510,2022-138R,2024-01-20T13:55:10.927776,13.20771814,.0002201,87.9181,89.3202,94.1377,266.0008,0,U,54128,999,6330,-.43178E-4,-.5E-7,0
ONEWEB-0511,2022-138S,2024-01-20T07:06:41.742144,13.19725750,.0001611,87.9200,119.9249,122.4591,237.6698,0,U,54129,999,6091,.29507E-3,.131E-5,0
ONEWEB-0512,2022-138T,2024-01-20T06:55:19.498368,13.19725887,.0002188,87.9209,119.9306,116.9939,243.1418,0,U,54130,999,6088,.2829E-3,.126E-5,0
ONEWEB-0513,2022-138U,2024-01-20T08:02:26.444256,13.19725246,.0002019,87.9213,119.9196,123.6379,236.4947,0,U,54131,999,6077,.27938E-3,.125E-5,0
ONEWEB-0515,2022-138W,2024-01-20T04:31:33.480480,13.20771729,.0002079,87.9180,89.3793,66.1836,293.9515,0,U,54133,999,6327,.16097E-3,.78E-6,0
ONEWEB-0516,2022-138X,2024-01-20T06:41:40.461792,13.19725389,.0001919,87.9209,119.9327,106.6813,253.4531,0,U,54134,999,6090,.3722E-3,.162E-5,0
ONEWEB-0518,2022-138Z,2024-01-20T06:39:24.216768,13.19725828,.0001588,87.9208,119.9328,108.6050,251.5255,0,U,54136,999,6090,.20363E-3,.94E-6,0
ONEWEB-0520,2022-138AB,2024-01-20T08:05:50.119296,13.19725350,.0002258,87.9201,119.9160,112.6988,247.4383,0,U,54138,999,6090,-.47951E-4,-.6E-7,0
ONEWEB-0522,2022-138AD,2024-01-20T08:24:01.926720,13.19725871,.0001867,87.9200,119.9111,104.3849,255.7491,0,U,54140,999,6089,-.24348E-3,-.85E-6,0
